STARLINK-3078           
1 49134U 21082E   26022.52024400 -.00001363  00000+0 -10645-3 0  9996
2 49134  69.9997  50.8690 0003143 267.0573  93.0226 14.98325093240261
STARLINK-3073           
1 49135U 21082F   26022.95786693  .00000182  00000+0  23046-4 0  9999
2 49135  70.0012   9.7429 0002938 272.5732  87.5091 14.98335421240124
STARLINK-3055           
1 49137U 21082H   26022.45779114 -.00002285  00000+0 -18774-3 0  9995
2 49137  70.0008  31.6625 0003725 277.3440  82.7295 14.97518099239536
STARLINK-3058           
1 49138U 21082J   26022.44930404 -.00001443  00000+0 -11317-3 0  9997
2 49138  70.0009  51.0520 0002898 264.4683  95.6145 14.98322993239055
STARLINK-3057           
1 49139U 21082K   26022.94955032  .00000047  00000+0  11757-4 0  9993
2 49139  70.0011   9.7713 0002837 266.5998  93.4836 14.98324723240113
STARLINK-3093           
1 49141U 21082M   26022.51189821 -.00000667  00000+0 -48136-4 0  9995
2 49141  70.0007  50.8986 0002452 260.5705  99.5177 14.98327563240269
STARLINK-3109           
1 49143U 21082P   26022.45373374 -.00001589  00000+0 -12810-3 0  9991
2 49143  69.9998  31.6756 0003214 269.0649  91.0141 14.97512466240644
STARLINK-3100           
1 49144U 21082Q   26022.50354874 -.00002958  00000+0 -24030-3 0  9990
2 49144  69.9997  50.8986 0003175 272.9781  87.1015 14.98318731239068
STARLINK-3119           
1 49145U 21082R   26022.92033737  .00003643  00000+0  31299-3 0  9994
2 49145  70.0002   9.8398 0002837 270.2789  89.8045 14.98325646240105
STARLINK-3116           
1 49146U 21082S   26022.44956423 -.00000700  00000+0 -52016-4 0  9992
2 49146  70.0002  31.6890 0002914 270.7948  89.2877 14.97516376240685
STARLINK-3071           
1 49147U 21082T   26022.66581586 -.00007239  00000+0 -59953-3 0  9991
2 49147  70.0024  10.4983 0002351 283.9768  76.1129 14.98331111240070
STARLINK-3048           
1 49148U 21082U   26022.44119033  .00001857  00000+0  16673-3 0  9992
2 49148  69.9996  31.6892 0003265 268.8698  91.2086 14.97534835239524
STARLINK-3102           
1 49151U 21082X   26022.31115536 -.00001286  00000+0 -10007-3 0  9999
2 49151  70.0011  11.3827 0002776 266.4551  93.6291 14.98316796241218
STARLINK-3072           
1 49153U 21082Z   26022.90364898  .00001881  00000+0  16543-3 0  9993
2 49153  70.0022   9.8959 0003039 270.1681  89.9130 14.98320329241317
STARLINK-3068           
1 49154U 21082AA  26022.43703758 -.00000253  00000+0 -13739-4 0  9993
2 49154  69.9996  31.7028 0003170 270.1814  89.8981 14.97519610240606
STARLINK-3060           
1 49155U 21082AB  26022.36539725 -.00001398  00000+0 -10939-3 0  9996
2 49155  70.0008  11.2467 0003139 274.2093  85.8707 14.98319307241103
