[{"OBJECT_NAME":"STARLINK-3078","OBJECT_ID":"2021-082E","EPOCH":"2026-01-22T12:29:09.081600","MEAN_MOTION":14.98325093,"ECCENTRICITY":0.00031434,"INCLINATION":69.9997,"RA_OF_ASC_NODE":50.869,"ARG_OF_PERICENTER":267.0573,"MEAN_ANOMALY":93.0226,"EPHEMERIS_TYPE":0,"CLASSIFICATION_TYPE":"U","NORAD_CAT_ID":49134,"ELEMENT_SET_NO":999,"REV_AT_EPOCH":24026,"BSTAR":-0.00010644574,"MEAN_MOTION_DOT":-1.363e-5,"MEAN_MOTION_DDOT":0},{"OBJECT_NAME":"STARLINK-3073","OBJECT_ID":"2021-082F","EPOCH":"2026-01-22T22:59:19.702752","MEAN_MOTION":14.98335421,"ECCENTRICITY":0.0002938,"INCLINATION":70.0012,"RA_OF_ASC_NODE":9.7429,"ARG_OF_PERICENTER":272.5732,"MEAN_ANOMALY":87.5091,"EPHEMERIS_TYPE":0,"CLASSIFICATION_TYPE":"U","NORAD_CAT_ID":49135,"ELEMENT_SET_NO":999,"REV_AT_EPOCH":24012,"BSTAR":2.3046443e-5,"MEAN_MOTION_DOT":1.82e-6,"MEAN_MOTION_DDOT":0},{"OBJECT_NAME":"STARLINK-3055","OBJECT_ID":"2021-082H","EPOCH":"2026-01-22T10:59:13.154496","MEAN_MOTION":14.97518099,"ECCENTRICITY":0.00037254,"INCLINATION":70.0008,"RA_OF_ASC_NODE":31.6625,"ARG_OF_PERICENTER":277.344,"MEAN_ANOMALY":82.7295,"EPHEMERIS_TYPE":0,"CLASSIFICATION_TYPE":"U","NORAD_CAT_ID":49137,"ELEMENT_SET_NO":999,"REV_AT_EPOCH":23953,"BSTAR":-0.00018773525,"MEAN_MOTION_DOT":-2.285e-5,"MEAN_MOTION_DDOT":0},{"OBJECT_NAME":"STARLINK-3058","OBJECT_ID":"2021-082J","EPOCH":"2026-01-22T10:46:59.869056","MEAN_MOTION":14.98322993,"ECCENTRICITY":0.00028989,"INCLINATION":70.0009,"RA_OF_ASC_NODE":51.052,"ARG_OF_PERICENTER":264.4683,"MEAN_ANOMALY":95.6145,"EPHEMERIS_TYPE":0,"CLASSIFICATION_TYPE":"U","NORAD_CAT_ID":49138,"ELEMENT_SET_NO":999,"REV_AT_EPOCH":23905,"BSTAR":-0.00011316953,"MEAN_MOTION_DOT":-1.443e-5,"MEAN_MOTION_DDOT":0},{"OBJECT_NAME":"STARLINK-3057","OBJECT_ID":"2021-082K","EPOCH":"2026-01-22T22:47:21.147648","MEAN_MOTION":14.98324723,"ECCENTRICITY":0.00028377,"INCLINATION":70.0011,"RA_OF_ASC_NODE":9.7713,"ARG_OF_PERICENTER":266.5998,"MEAN_ANOMALY":93.4836,"EPHEMERIS_TYPE":0,"CLASSIFICATION_TYPE":"U","NORAD_CAT_ID":49139,"ELEMENT_SET_NO":999,"REV_AT_EPOCH":24011,"BSTAR":1.1756501e-5,"MEAN_MOTION_DOT":4.7e-7,"MEAN_MOTION_DDOT":0},{"OBJECT_NAME":"STARLINK-3093","OBJECT_ID":"2021-082M","EPOCH":"2026-01-22T12:17:08.005344","MEAN_MOTION":14.98327563,"ECCENTRICITY":0.00024526,"INCLINATION":70.0007,"RA_OF_ASC_NODE":50.8986,"ARG_OF_PERICENTER":260.5705,"MEAN_ANOMALY":99.5177,"EPHEMERIS_TYPE":0,"CLASSIFICATION_TYPE":"U","NORAD_CAT_ID":49141,"ELEMENT_SET_NO":999,"REV_AT_EPOCH":24026,"BSTAR":-4.813622e-5,"MEAN_MOTION_DOT":-6.67e-6,"MEAN_MOTION_DDOT":0},{"OBJECT_NAME":"STARLINK-3109","OBJECT_ID":"2021-082P","EPOCH":"2026-01-22T10:53:22.595136","MEAN_MOTION":14.97512466,"ECCENTRICITY":0.00032148,"INCLINATION":69.9998,"RA_OF_ASC_NODE":31.6756,"ARG_OF_PERICENTER":269.0649,"MEAN_ANOMALY":91.0141,"EPHEMERIS_TYPE":0,"CLASSIFICATION_TYPE":"U","NORAD_CAT_ID":49143,"ELEMENT_SET_NO":999,"REV_AT_EPOCH":24064,"BSTAR":-0.00012810245,"MEAN_MOTION_DOT":-1.589e-5,"MEAN_MOTION_DDOT":0},{"OBJECT_NAME":"STARLINK-3100","OBJECT_ID":"2021-082Q","EPOCH":"2026-01-22T12:05:06.611136","MEAN_MOTION":14.98318731,"ECCENTRICITY":0.00031757,"INCLINATION":69.9997,"RA_OF_ASC_NODE":50.8986,"ARG_OF_PERICENTER":272.9781,"MEAN_ANOMALY":87.1015,"EPHEMERIS_TYPE":0,"CLASSIFICATION_TYPE":"U","NORAD_CAT_ID":49144,"ELEMENT_SET_NO":999,"REV_AT_EPOCH":23906,"BSTAR":-0.00024029825,"MEAN_MOTION_DOT":-2.958e-5,"MEAN_MOTION_DDOT":0},{"OBJECT_NAME":"STARLINK-3119","OBJECT_ID":"2021-082R","EPOCH":"2026-01-22T22:05:17.148768","MEAN_MOTION":14.98325646,"ECCENTRICITY":0.00028374,"INCLINATION":70.0002,"RA_OF_ASC_NODE":9.8398,"ARG_OF_PERICENTER":270.2789,"MEAN_ANOMALY":89.8045,"EPHEMERIS_TYPE":0,"CLASSIFICATION_TYPE":"U","NORAD_CAT_ID":49145,"ELEMENT_SET_NO":999,"REV_AT_EPOCH":24010,"BSTAR":0.00031298708,"MEAN_MOTION_DOT":3.643e-5,"MEAN_MOTION_DDOT":0},{"OBJECT_NAME":"STARLINK-3116","OBJECT_ID":"2021-082S","EPOCH":"2026-01-22T10:47:22.349472","MEAN_MOTION":14.97516376,"ECCENTRICITY":0.00029148,"INCLINATION":70.0002,"RA_OF_ASC_NODE":31.689,"ARG_OF_PERICENTER":270.7948,"MEAN_ANOMALY":89.2877,"EPHEMERIS_TYPE":0,"CLASSIFICATION_TYPE":"U","NORAD_CAT_ID":49146,"ELEMENT_SET_NO":999,"REV_AT_EPOCH":24068,"BSTAR":-5.2015827e-5,"MEAN_MOTION_DOT":-7.0e-6,"MEAN_MOTION_DDOT":0},{"OBJECT_NAME":"STARLINK-3071","OBJECT_ID":"2021-082T","EPOCH":"2026-01-22T15:58:46.490304","MEAN_MOTION":14.98331111,"ECCENTRICITY":0.00023513,"INCLINATION":70.0024,"RA_OF_ASC_NODE":10.4983,"ARG_OF_PERICENTER":283.9768,"MEAN_ANOMALY":76.1129,"EPHEMERIS_TYPE":0,"CLASSIFICATION_TYPE":"U","NORAD_CAT_ID":49147,"ELEMENT_SET_NO":999,"REV_AT_EPOCH":24007,"BSTAR":-0.00059953389,"MEAN_MOTION_DOT":-7.239e-5,"MEAN_MOTION_DDOT":0},{"OBJECT_NAME":"STARLINK-3048","OBJECT_ID":"2021-082U","EPOCH":"2026-01-22T10:35:18.844512","MEAN_MOTION":14.97534835,"ECCENTRICITY":0.00032659,"INCLINATION":69.9996,"RA_OF_ASC_NODE":31.6892,"ARG_OF_PERICENTER":268.8698,"MEAN_ANOMALY":91.2086,"EPHEMERIS_TYPE":0,"CLASSIFICATION_TYPE":"U","NORAD_CAT_ID":49148,"ELEMENT_SET_NO":999,"REV_AT_EPOCH":23952,"BSTAR":0.00016673075,"MEAN_MOTION_DOT":1.857e-5,"MEAN_MOTION_DDOT":0},{"OBJECT_NAME":"STARLINK-3102","OBJECT_ID":"2021-082X","EPOCH":"2026-01-22T07:28:03.823104","MEAN_MOTION":14.98316796,"ECCENTRICITY":0.00027762,"INCLINATION":70.0011,"RA_OF_ASC_NODE":11.3827,"ARG_OF_PERICENTER":266.4551,"MEAN_ANOMALY":93.6291,"EPHEMERIS_TYPE":0,"CLASSIFICATION_TYPE":"U","NORAD_CAT_ID":49151,"ELEMENT_SET_NO":999,"REV_AT_EPOCH":24121,"BSTAR":-0.00010006818,"MEAN_MOTION_DOT":-1.286e-5,"MEAN_MOTION_DDOT":0},{"OBJECT_NAME":"STARLINK-3072","OBJECT_ID":"2021-082Z","EPOCH":"2026-01-22T21:41:15.271872","MEAN_MOTION":14.98320329,"ECCENTRICITY":0.00030397,"INCLINATION":70.0022,"RA_OF_ASC_NODE":9.8959,"ARG_OF_PERICENTER":270.1681,"MEAN_ANOMALY":89.913,"EPHEMERIS_TYPE":0,"CLASSIFICATION_TYPE":"U","NORAD_CAT_ID":49153,"ELEMENT_SET_NO":999,"REV_AT_EPOCH":24131,"BSTAR":0.00016543183,"MEAN_MOTION_DOT":1.881e-5,"MEAN_MOTION_DDOT":0},{"OBJECT_NAME":"STARLINK-3068","OBJECT_ID":"2021-082AA","EPOCH":"2026-01-22T10:29:20.046912","MEAN_MOTION":14.9751961,"ECCENTRICITY":0.00031706,"INCLINATION":69.9996,"RA_OF_ASC_NODE":31.7028,"ARG_OF_PERICENTER":270.1814,"MEAN_ANOMALY":89.8981,"EPHEMERIS_TYPE":0,"CLASSIFICATION_TYPE":"U","NORAD_CAT_ID":49154,"ELEMENT_SET_NO":999,"REV_AT_EPOCH":24060,"BSTAR":-1.3738926e-5,"MEAN_MOTION_DOT":-2.53e-6,"MEAN_MOTION_DDOT":0},{"OBJECT_NAME":"STARLINK-3060","OBJECT_ID":"2021-082AB","EPOCH":"2026-01-22T08:46:10.322400","MEAN_MOTION":14.98319307,"ECCENTRICITY":0.00031398,"INCLINATION":70.0008,"RA_OF_ASC_NODE":11.2467,"ARG_OF_PERICENTER":274.2093,"MEAN_ANOMALY":85.8707,"EPHEMERIS_TYPE":0,"CLASSIFICATION_TYPE":"U","NORAD_CAT_ID":49155,"ELEMENT_SET_NO":999,"REV_AT_EPOCH":24110,"BSTAR":-0.00010938565,"MEAN_MOTION_DOT":-1.398e-5,"MEAN_MOTION_DDOT":0}]
